LANDSAT 9               
1 49260U 21088A   24042.75081408  .00000917  00000+0  21349-3 0  9993
2 49260  98.2022 114.4338 0000972 107.5094 252.6211 14.57122022126288
